GLOBALSTAR M068         
1 32266U 07048D   25330.89145241 -.00000086  00000+0  98659-4 0  9990
2 32266  51.9854 166.2750 0002019 110.3112 359.1704 12.62834037838117
GLOBALSTAR M079         
1 37188U 10054A   25331.12712200 -.00000092  00000+0  67501-4 0  9990
2 37188  52.0060   3.7714 0000037 159.7250 213.8356 12.62268777697034
GLOBALSTAR M074         
1 37189U 10054B   25331.07530858 -.00000093  00000+0  60118-4 0  9990
2 37189  52.0036   3.2259 0000367  82.0704 295.9063 12.62263649697630
GLOBALSTAR M076         
1 37190U 10054C   25331.02094145 -.00000093  00000+0  58810-4 0  9997
2 37190  52.0054   3.5791 0000260  43.3483 326.0839 12.62267597697343
GLOBALSTAR M077         
1 37191U 10054D   25331.04370322 -.00000076  00000+0  87626-4 0  9992
2 37191  52.0118 333.2187 0017590 303.5032  90.3893 11.82670066697501
GLOBALSTAR M075         
1 37192U 10054E   25331.19555139 -.00000091  00000+0  71683-4 0  9993
2 37192  51.9968  45.2107 0000575 117.1972 267.5337 12.62269927696433
GLOBALSTAR M073         
1 37193U 10054F   25331.04136661 -.00000083  00000+0  11868-3 0  9992
2 37193  52.0076 319.6277 0000319  20.0357  21.8414 12.62264645698405
GLOBALSTAR M083         
1 37739U 11033A   25330.98243795 -.00000071  00000+0  18246-3 0  9999
2 37739  51.9865 268.3119 0000539  43.4404  32.4320 12.62264901667412
GLOBALSTAR M088         
1 37740U 11033B   25331.05504105 -.00000088  00000+0  86270-4 0  9996
2 37740  52.0185 174.0293 0001145  90.1314  74.8531 12.62270666662964
GLOBALSTAR M091         
1 37741U 11033C   25330.65360972 -.00000097  00000+0  38866-4 0  9992
2 37741  51.9969 138.5149 0000995 108.8745 330.7097 12.62262112663706
GLOBALSTAR M085         
1 37742U 11033D   25330.62555172 -.00000100  00000+0  18768-4 0  9992
2 37742  52.0124  89.7135 0000774 131.3464 241.2063 12.62266806664218
GLOBALSTAR M081         
1 37743U 11033E   25330.67225591 -.00000101  00000+0  14652-4 0  9996
2 37743  51.9955  92.2373 0000628 116.7957 348.4263 12.62270542664364
GLOBALSTAR M089         
1 37744U 11033F   25330.64160403 -.00000096  00000+0  44311-4 0  9992
2 37744  51.9949  46.5278 0000605  94.6950  52.2467 12.62272521665205
GLOBALSTAR M084         
1 38040U 11080A   25331.20761796 -.00000068  00000+0  19877-3 0  9996
2 38040  52.0016 272.1813 0000912  47.5160  91.4169 12.62265834643259
GLOBALSTAR M080         
1 38041U 11080B   25331.00718742 -.00000076  00000+0  15298-3 0  9990
2 38041  52.0070 274.4395 0000596 101.7114 335.8860 12.62271518643350
GLOBALSTAR M082         
1 38042U 11080C   25331.11623869 -.00000079  00000+0  13782-3 0  9997
2 38042  52.0072 229.5875 0000762  89.9670  53.1687 12.62265461644073
GLOBALSTAR M092         
1 38043U 11080D   25330.28914387 -.00000107  00000+0 -18947-4 0  9995
2 38043  52.0105 322.4906 0000365  64.3958  37.9318 12.62267715642426
GLOBALSTAR M090         
1 38044U 11080E   25331.14765514 -.00000083  00000+0  11505-3 0  9992
2 38044  52.0114 223.3832 0000753  69.3401  95.6046 12.62264666644190
GLOBALSTAR M086         
1 38045U 11080F   25331.17229574 -.00000076  00000+0  15565-3 0  9999
2 38045  51.9890 223.5667 0001064   4.9204 160.7403 12.62280369644144
GLOBALSTAR M097         
1 39072U 13005A   25330.76788604 -.00000095  00000+0  46519-4 0  9992
2 39072  52.0017 139.5174 0000822  96.9192 263.1769 12.62267735591343
GLOBALSTAR M093         
1 39073U 13005B   25330.74183520 -.00000100  00000+0  22389-4 0  9993
2 39073  52.0077 132.8671 0000651 109.4572 250.6365 12.62270748591295
GLOBALSTAR M094         
1 39074U 13005C   25330.74161738 -.00000102  00000+0  11260-4 0  9999
2 39074  51.9975  47.1853 0000354 144.1684 215.9207 12.62264938592903
GLOBALSTAR M096         
1 39075U 13005D   25330.67553595 -.00000091  00000+0  73523-4 0  9995
2 39075  52.0068  96.0264 0000716 126.6046 233.4887 12.62269018591819
GLOBALSTAR M078         
1 39076U 13005E   25330.96634869 -.00000096  00000+0  42871-4 0  9999
2 39076  51.9848 179.4360 0001256 132.1469 227.9504 12.62272190590478
GLOBALSTAR M095         
1 39077U 13005F   25330.99249832 -.00000087  00000+0  92389-4 0  9994
2 39077  52.0049 176.6721 0000839 109.6793 250.4164 12.62266989590336
GLOBALSTAR M087         
1 52888U 22064A   25330.37197402 -.00000089  00000+0  84475-4 0  9990
2 52888  52.0010 319.9131 0000142  57.5796 302.5084 12.62260659165524
